HELIOS 1B               
1 25977U 99064A   20156.32943584  .00000023  00000-0  10021-4 0  9993
2 25977  98.2796 310.7566 0002185  60.5705 299.5724 14.82479604373174
TERRA                   
1 25994U 99068A   20156.53522784  .00000077  00000-0  27187-4 0  9994
2 25994  98.2129 230.9999 0001498 101.6557 258.4819 14.57116885 88436
SL-16 R/B               
1 26070U 00006B   20156.37589101  .00000290  00000-0  17284-3 0  9995
2 26070  71.0016 200.7344 0015495 150.7743 209.4250 14.15463326 50780
TITAN 4B R/B            
1 26474U 00047B   20156.28081970  .00000002  00000-0  11204-4 0  9997
2 26474  67.9934 111.9497 0058852 216.1195 143.5967 14.95955335 77354
ENVISAT                 
1 27386U 02009A   20156.06509896  .00000019  00000-0  19654-4 0  9993
2 27386  98.1360 163.8190 0001259  89.3975 337.7433 14.37982553956693
IDEFIX & ARIANE 42P R/B 
1 27422U 02021B   20156.43457387 -.00000017  00000-0  95130-5 0  9999
2 27422  98.3503 118.0420 0010935 270.0448  89.9482 14.29288809943306
AQUA                    
1 27424U 02022A   20156.58994660  .00000062  00000-0  23851-4 0  9997
2 27424  98.2089  97.4056 0002511  55.0288 129.4079 14.57110938961990
CZ-4B R/B               
1 27432U 02024C   20156.54061931 -.00000023  00000-0  11893-4 0  9991
2 27432  99.0874 158.5157 0049900 211.8273 255.8325 14.14093616931823
MIDORI II (ADEOS-II)    
1 27597U 02056A   20156.56932348  .00000006  00000-0  19972-4 0  9995
2 27597  98.5195 104.4795 0001946  59.2639 300.8734 14.27447826909977
H-2A R/B                
1 27601U 02056E   20156.54063789  .00000039  00000-0  29143-4 0  9990
2 27601  98.2269 192.9762 0071198 316.8827 162.1567 14.31951985912849
CZ-4B R/B               
1 28059U 03049C   20156.23553987  .00000017  00000-0  15786-4 0  9995
2 28059  98.4868  72.6177 0050058 177.6845 182.4591 14.52600565880915
CZ-2C R/B               
1 28222U 04012C   20156.47435538  .00000498  00000-0  33612-4 0  9996
2 28222  97.6762 118.9810 0048755  75.0502  38.4985 15.10387092884037
SL-16 R/B               
1 28353U 04021B   20155.90958115 -.00000293  00000-0 -12854-3 0  9998
2 28353  70.9998 327.7321 0005873 330.8090  29.2703 14.14232805825228
CZ-4B R/B               
1 28415U 04035C   20156.08849516 -.00000077  00000-0 -65213-6 0  9996
2 28415  97.6142 197.8119 0052597  39.4500 321.0538 15.06859141861621
CZ-2C R/B               
1 28480U 04046B   20156.07976295  .00000016  00000-0  21928-4 0  9998
2 28480  98.0792 192.0627 0140595 264.6561 147.2382 14.25723250808510
ARIANE 5 R/B            
1 28499U 04049H   20156.32024189  .00000011  00000-0  89630-5 0  9995
2 28499  98.0539 258.0515 0091176 316.3701  76.9449 14.80028118834196
CZ-2D R/B               
1 28738U 05024B   20156.54245531  .00000368  00000-0  25026-4 0  9998
2 28738  97.3832 179.5450 0010736 222.4890 137.5511 15.12034272819454
SUZAKU (ASTRO-EII)      
1 28773U 05025A   20156.26168984  .00000644  00000-0  26970-4 0  9999
2 28773  31.3819 102.4423 0004346  75.4400 284.6729 15.17557056821952
ALOS (DAICHI)           
1 28931U 06002A   20156.55517630  .00000100  00000-0  28297-4 0  9990
2 28931  97.8445 142.9198 0002064  98.7601 261.3831 14.62712554765817
H-2A R/B                
1 28932U 06002B   20156.51692667  .00000279  00000-0  31919-4 0  9993
2 28932  98.3212 145.8187 0088866   4.8057 105.8739 14.92221607779218
AKARI (ASTRO-F)         
1 28939U 06005A   20156.53526571  .00003407  00000-0  92056-4 0  9990
2 28939  98.2308 129.1544 0093714  10.3579 349.9563 15.34242489778911
RESURS-DK 1             
1 29228U 06021A   20156.56641690  .00000042  00000-0  10465-4 0  9999
2 29228  69.9355 220.8074 0002575 160.2416 199.8845 15.02541949770811
GENESIS 1               
1 29252U 06029A   20156.56476511  .00000372  00000-0  28108-4 0  9991
2 29252  64.5213 343.7383 0013142 179.2701 180.8444 15.18124338766141
CZ-4B R/B               
1 29507U 06046C   20156.55548192  .00000519  00000-0  45045-4 0  9999
2 29507  97.7601 178.4653 0048101 206.3908 153.4865 15.00649227743430
CZ-2C R/B               
1 31114U 07010B   20156.54498202  .00000045  00000-0  39941-4 0  9995
2 31114  98.2628  10.2886 0058761 305.5801  53.9908 14.19321450681178
COSMO-SKYMED 1          
1 31598U 07023A   20156.58337633 -.00000259  00000-0 -26005-4 0  9995
2 31598  97.8852 339.9464 0001424  91.0188 269.1186 14.82155662702926
GENESIS 2               
1 31789U 07028A   20155.98396729  .00000377  00000-0  28830-4 0  9993
2 31789  64.5055  27.1964 0047682 243.3987 116.2246 15.17266991713131
COSMOS 2428             
1 31792U 07029A   20155.82598986 -.00000310  00000-0 -14228-3 0  9994
2 31792  70.9146 301.5927 0007158  76.5276 283.6642 14.12342007666948
SL-16 R/B               
1 31793U 07029B   20156.40301590 -.00000319  00000-0 -14143-3 0  9998
2 31793  70.9758 273.7727 0002758 273.9286 142.3164 14.14427930667886
KORONAS-FOTON           
1 33504U 09003A   20156.49511251  .00000673  00000-0  33639-4 0  9993
2 33504  82.4435 235.7119 0018137 328.1681  31.8453 15.15641928625425
H-2A R/B                
1 38341U 12025E   20156.43541557  .00000118  00000-0  21497-4 0  9994
2 38341  98.4986 310.6100 0054268 273.8369  85.6640 14.84031694435437
CUSAT 2 & FALCON 9 R/B  
1 39271U 13055G   20156.33748301  .00006331  00000-0  15324-3 0  9990
2 39271  80.9668 281.1046 0589058 209.5897 147.0743 14.47817222348838
SL-4 R/B                
1 39679U 14021B   20156.24414087 -.00000044  00000-0  16068-4 0  9990
2 39679  51.6156 168.7210 0171476 259.9831  98.1751 15.06415521337035
ALOS-2                  
1 39766U 14029A   20156.52561791  .00000100  00000-0  20204-4 0  9990
2 39766  97.9218 253.3060 0001526  89.9055 270.2346 14.79471670325783
SL-27 R/B               
1 40354U 14084B   20156.46923315  .00000577  00000-0  15349-4 0  9995
2 40354  74.7391  54.9587 0039007 250.9483 108.7503 15.40208340306131
YAOGAN 29               
1 41038U 15069A   20156.52942867  .00000007  00000-0  78276-5 0  9996
2 41038  98.0099 144.5244 0000838  45.8867 314.2412 14.80448682244365
ASTRO-H (HITOMI)        
1 41337U 16012A   20156.27747205  .00000216  00000-0  10566-4 0  9997
2 41337  31.0058  93.2996 0012453 300.5469  59.3936 14.98683997235523
SHENZHOU-11 MODULE      
1 41868U 16061G   20156.41667031  .00047025  92408-5  10913-3 0  9996
2 41868  42.7873 220.6173 0012434  49.7473  60.2688 15.97009190203982
HXMT (HUIYAN)           
1 42758U 17034A   20156.36258976 -.00000012  00000-0  12964-4 0  9991
2 42758  43.0176 107.8063 0012146 304.6499 193.3225 15.08828610163894
CZ-2C R/B               
1 43521U 18054D   20156.52716548  .00000257  00000-0  16267-4 0  9995
2 43521  35.1535 259.6225 0082873   3.1134 357.0082 15.11002740107194
AEOLUS                  
1 43600U 18066A   20156.55607204  .00025834  00000-0  99973-4 0  9990
2 43600  96.7177 163.1498 0004433  76.6661 283.5106 15.87200793103326
SAOCOM 1A               
1 43641U 18076A   20156.52405326  .00000012  00000-0  81005-5 0  9993
2 43641  97.8898 342.8251 0001453  84.0177 276.1207 14.82157496 89687
CREW DRAGON DEMO-1 DEB  
1 44064U 19011B   20156.56767938  .00011423  00000-0  12070-3 0  9999
2 44064  51.6357  17.7367 0003065  23.2957 336.8177 15.64714852 70892
